{"type":"FeatureCollection","features":[{"type":"Feature","geometry":{"type":"LineString","coordinates":[[-16.46292,32.40311],[-16.46208,32.40208],[-16.46292,32.40176],[-16.46708,32.40174],[-16.46792,32.4028],[-16.46958,32.40271],[-16.47125,32.40358],[-16.47542,32.40375],[-16.47716,32.40542],[-16.47708,32.40625],[-16.47792,32.40606],[-16.47986,32.40708],[-16.48208,32.40916],[-16.48375,32.4111],[-16.48375,32.41208],[-16.48458,32.41327],[-16.48541,32.41375],[-16.48542,32.41458],[-16.48625,32.4145],[-16.48674,32.41542],[-16.48703,32.41625],[-16.48542,32.41638],[-16.48458,32.41491],[-16.48375,32.41533],[-16.48125,32.41677],[-16.4807,32.41875],[-16.48348,32.42042],[-16.48458,32.42352],[-16.48708,32.42538],[-16.48792,32.42692],[-16.4885,32.42625],[-16.4888,32.42292],[-16.48708,32.41632],[-16.487,32.42375],[-16.48958,32.42413],[-16.49007,32.42625],[-16.492,32.42875],[-16.49208,32.43125],[-16.49375,32.43253],[-16.49456,32.43458],[-16.49383,32.43792],[-16.49439,32.44042],[-16.49532,32.44125],[-16.49458,32.44128],[-16.49363,32.44125],[-16.49364,32.43458],[-16.49292,32.43386],[-16.49251,32.43458],[-16.49228,32.44792],[-16.49292,32.4536],[-16.4936,32.45292],[-16.49363,32.45125],[-16.49458,32.4512],[-16.49538,32.45042],[-16.4954,32.44708],[-16.49458,32.44629],[-16.49367,32.44625],[-16.49458,32.44622],[-16.49539,32.44542],[-16.49542,32.44138],[-16.49614,32.44375],[-16.49607,32.44542],[-16.49543,32.44625],[-16.49593,32.45042],[-16.49432,32.45375],[-16.49375,32.45708],[-16.49458,32.4573],[-16.49479,32.45792],[-16.49375,32.45875],[-16.49385,32.46042],[-16.49292,32.46292],[-16.492,32.46292],[-16.49292,32.46292],[-16.49276,32.45875],[-16.49375,32.45875],[-16.49375,32.45708],[-16.48958,32.45899],[-16.48833,32.45708],[-16.48808,32.44542],[-16.48733,32.44458],[-16.48719,32.44208],[-16.48642,32.44125],[-16.48639,32.43792],[-16.48474,32.43708],[-16.48458,32.42792],[-16.48226,32.42458],[-16.48208,32.42134],[-16.48099,32.42125],[-16.47875,32.41903],[-16.47864,32.41792],[-16.47792,32.4172],[-16.47625,32.41721],[-16.47542,32.41626],[-16.47292,32.41605],[-16.47231,32.41542],[-16.47208,32.41301],[-16.47058,32.41208],[-16.46973,32.40958],[-16.46875,32.40941],[-16.46617,32.40708],[-16.46575,32.40542],[-16.46375,32.40467],[-16.46292,32.40311]]},"properties":{"source":"emodnet_dtm_2024","level":2}},{"type":"Feature","geometry":{"type":"LineString","coordinates":[[-16.48958,32.42795],[-16.48958,32.42708],[-16.48794,32.42792],[-16.48784,32.43125],[-16.49226,32.43375],[-16.49292,32.43208],[-16.49208,32.43218],[-16.49208,32.43125],[-16.49125,32.43131],[-16.49122,32.42875],[-16.49042,32.42796],[-16.48958,32.42795]]},"properties":{"source":"emodnet_dtm_2024","level":2}},{"type":"Feature","geometry":{"type":"LineString","coordinates":[[-16.49375,32.47551],[-16.49375,32.47375],[-16.49208,32.47353],[-16.49208,32.47392],[-16.49375,32.47375],[-16.49458,32.47452],[-16.49509,32.47542],[-16.49375,32.47551]]},"properties":{"source":"emodnet_dtm_2024","level":2}},{"type":"Feature","geometry":{"type":"LineString","coordinates":[[-16.49542,32.47715],[-16.49542,32.47576],[-16.49708,32.47831],[-16.49639,32.48375],[-16.49708,32.48452],[-16.49734,32.48625],[-16.49792,32.48683],[-16.49955,32.48708],[-16.49679,32.48708],[-16.49708,32.48542],[-16.49625,32.4855],[-16.4962,32.48458],[-16.49537,32.48375],[-16.49537,32.48208],[-16.49619,32.48125],[-16.49625,32.47708],[-16.49542,32.47715]]},"properties":{"source":"emodnet_dtm_2024","level":2}},{"type":"Feature","geometry":{"type":"LineString","coordinates":[[-16.48958,32.47842],[-16.4891,32.47792],[-16.48926,32.47625],[-16.49113,32.47542],[-16.49125,32.47448],[-16.49244,32.48042],[-16.49228,32.48542],[-16.49603,32.48708],[-16.49792,32.49035],[-16.50042,32.49143],[-16.50091,32.49125],[-16.50028,32.49042],[-16.50042,32.48795],[-16.5011,32.48875],[-16.50125,32.49042],[-16.50343,32.49208],[-16.50192,32.49208],[-16.50208,32.49125],[-16.50125,32.49142],[-16.50089,32.49208],[-16.50142,32.49375],[-16.50131,32.50208],[-16.50458,32.50447],[-16.50549,32.50458],[-16.50505,32.50542],[-16.50551,32.51042],[-16.50625,32.51147],[-16.50868,32.51292],[-16.51042,32.51604],[-16.51292,32.51773],[-16.51449,32.52292],[-16.51625,32.5231],[-16.51708,32.52465],[-16.52066,32.52708],[-16.52708,32.53292],[-16.53312,32.53375],[-16.53231,32.53458],[-16.53292,32.53509],[-16.53375,32.53411],[-16.53542,32.53625],[-16.53708,32.53649],[-16.53928,32.53875],[-16.53942,32.54042],[-16.53792,32.54542],[-16.53875,32.54588],[-16.53875,32.54792],[-16.53961,32.54875],[-16.53792,32.55042],[-16.53792,32.55208],[-16.53875,32.55188],[-16.53898,32.55292],[-16.53875,32.55427],[-16.53792,32.55458],[-16.53894,32.55542],[-16.53875,32.55792],[-16.53958,32.55826],[-16.5428,32.56292],[-16.54208,32.56625],[-16.54286,32.56708],[-16.54208,32.56792],[-16.54196,32.56958],[-16.54285,32.57125],[-16.54208,32.57208],[-16.54208,32.57375],[-16.54375,32.57524],[-16.54409,32.57625],[-16.54375,32.57708],[-16.54292,32.57714],[-16.54292,32.57458],[-16.54202,32.57458],[-16.54208,32.57375],[-16.54042,32.57375],[-16.54052,32.57792],[-16.54132,32.57875],[-16.54125,32.58157],[-16.53996,32.57792],[-16.5393,32.57375],[-16.53783,32.57292],[-16.53352,32.56875],[-16.52875,32.55958],[-16.52583,32.55792],[-16.52375,32.55542],[-16.52042,32.55355],[-16.51982,32.55208],[-16.52042,32.55042],[-16.5188,32.54875],[-16.51625,32.54292],[-16.51133,32.53542],[-16.51125,32.53458],[-16.51042,32.53472],[-16.5088,32.53375],[-16.50792,32.53042],[-16.5055,32.52542],[-16.50046,32.52125],[-16.50051,32.52042],[-16.49921,32.51875],[-16.49846,32.51625],[-16.49808,32.51042],[-16.49512,32.50458],[-16.493,32.50208],[-16.49236,32.50042],[-16.49213,32.49458],[-16.49115,32.49375],[-16.49115,32.49208],[-16.49042,32.49051],[-16.48897,32.48958],[-16.48899,32.48042],[-16.48958,32.4798],[-16.49082,32.47958],[-16.49089,32.47875],[-16.48958,32.47842]]},"properties":{"source":"emodnet_dtm_2024","level":2}},{"type":"Feature","geometry":{"type":"LineString","coordinates":[[-16.49958,32.48796],[-16.49958,32.48712],[-16.50038,32.48792],[-16.49958,32.48796]]},"properties":{"source":"emodnet_dtm_2024","level":2}},{"type":"Feature","geometry":{"type":"LineString","coordinates":[[-16.50375,32.49463],[-16.50375,32.49246],[-16.50467,32.49542],[-16.50458,32.49458],[-16.50375,32.49463]]},"properties":{"source":"emodnet_dtm_2024","level":2}},{"type":"Feature","geometry":{"type":"LineString","coordinates":[[-16.50458,32.50046],[-16.50458,32.50046]]},"properties":{"source":"emodnet_dtm_2024","level":2}},{"type":"Feature","geometry":{"type":"LineString","coordinates":[[-16.53792,32.53798],[-16.53792,32.53708],[-16.53542,32.53726],[-16.53512,32.53792],[-16.53625,32.54086],[-16.53792,32.54116],[-16.53865,32.54042],[-16.53868,32.53875],[-16.53792,32.53798]]},"properties":{"source":"emodnet_dtm_2024","level":2}},{"type":"Feature","geometry":{"type":"LineString","coordinates":[[-16.54125,32.56215],[-16.54042,32.56132],[-16.53958,32.56133],[-16.53906,32.56208],[-16.5384,32.56875],[-16.53736,32.57042],[-16.53708,32.57208],[-16.54208,32.57208],[-16.54208,32.57042],[-16.53947,32.56958],[-16.54042,32.56953],[-16.54122,32.56875],[-16.54125,32.56786],[-16.54208,32.56792],[-16.54208,32.56625],[-16.54119,32.56625],[-16.54119,32.56542],[-16.54202,32.56458],[-16.54208,32.56208],[-16.54125,32.56215]]},"properties":{"source":"emodnet_dtm_2024","level":2}},{"type":"Feature","geometry":{"type":"LineString","coordinates":[[-16.54375,32.57796],[-16.54375,32.57708],[-16.54458,32.57693],[-16.54769,32.58042],[-16.54792,32.58292],[-16.54875,32.58353],[-16.55017,32.58625],[-16.55091,32.58875],[-16.55042,32.58996],[-16.55036,32.58875],[-16.54954,32.58792],[-16.54954,32.58625],[-16.54875,32.58547],[-16.54784,32.58542],[-16.54792,32.58292],[-16.54702,32.58292],[-16.54704,32.58042],[-16.5462,32.57958],[-16.54625,32.57875],[-16.54375,32.57796]]},"properties":{"source":"emodnet_dtm_2024","level":2}},{"type":"Feature","geometry":{"type":"LineString","coordinates":[[-16.54208,32.58404],[-16.54208,32.58203],[-16.54215,32.58292],[-16.54458,32.58404],[-16.54579,32.58542],[-16.54375,32.58735],[-16.54292,32.58718],[-16.54208,32.58404]]},"properties":{"source":"emodnet_dtm_2024","level":2}},{"type":"Feature","geometry":{"type":"LineString","coordinates":[[-16.54292,32.58909],[-16.54292,32.58863],[-16.54292,32.58909]]},"properties":{"source":"emodnet_dtm_2024","level":2}},{"type":"Feature","geometry":{"type":"LineString","coordinates":[[-16.54458,32.59208],[-16.54412,32.59042],[-16.54463,32.59042],[-16.54458,32.59208],[-16.54542,32.59226],[-16.54625,32.59208],[-16.54685,32.59042],[-16.5462,32.59042],[-16.54625,32.59208],[-16.54458,32.59208]]},"properties":{"source":"emodnet_dtm_2024","level":2}},{"type":"Feature","geometry":{"type":"LineString","coordinates":[[-16.85375,32.63639],[-16.85375,32.63605],[-16.85375,32.63639]]},"properties":{"source":"emodnet_dtm_2024","level":2}},{"type":"Feature","geometry":{"type":"LineString","coordinates":[[-16.91375,32.64072],[-16.91331,32.64042],[-16.91458,32.63871],[-16.91875,32.64011],[-16.91958,32.63992],[-16.92042,32.63853],[-16.92125,32.63977],[-16.92148,32.63875],[-16.92292,32.6374],[-16.92458,32.63732],[-16.92708,32.63497],[-16.92958,32.63451],[-16.93125,32.63366],[-16.93625,32.6341],[-16.93875,32.63283],[-16.94375,32.63216],[-16.94625,32.63335],[-16.94792,32.63555],[-16.94958,32.63585],[-16.95375,32.63874],[-16.95458,32.63857],[-16.95477,32.63958],[-16.95792,32.6398],[-16.95875,32.64058],[-16.96292,32.64065],[-16.96375,32.64138],[-16.96458,32.64069],[-16.96542,32.64073],[-16.96625,32.64144],[-16.96958,32.64183],[-16.97292,32.64435],[-16.97625,32.64463],[-16.97792,32.64527],[-16.98125,32.64832],[-16.98458,32.64836],[-16.98542,32.64896],[-16.99625,32.6489],[-16.99708,32.64965],[-16.99875,32.6497],[-16.99958,32.6504],[-17.00292,32.65045],[-17.00375,32.65127],[-17.00542,32.65033],[-17.01125,32.65025],[-17.01208,32.64964],[-17.01708,32.6498],[-17.01875,32.65214],[-17.02208,32.65228],[-17.02292,32.65301],[-17.02458,32.65327],[-17.026,32.65625],[-17.02708,32.65716],[-17.03042,32.6569],[-17.03208,32.65734],[-17.03458,32.65886],[-17.03708,32.65958],[-17.03958,32.66192],[-17.04958,32.66248],[-17.05208,32.66476],[-17.05542,32.66489],[-17.05625,32.66559],[-17.05875,32.66585],[-17.06125,32.66675],[-17.06458,32.66904],[-17.06708,32.67002],[-17.06875,32.67298],[-17.07208,32.67317],[-17.07292,32.6739],[-17.07458,32.67409],[-17.07708,32.67525],[-17.08208,32.67513],[-17.08403,32.67625],[-17.08458,32.67727],[-17.08542,32.67746],[-17.10292,32.67732],[-17.10375,32.67635],[-17.10708,32.67787],[-17.10935,32.67958],[-17.1099,32.68125],[-17.11208,32.68174],[-17.11458,32.6839],[-17.1175,32.68458],[-17.11766,32.68542],[-17.11983,32.68708],[-17.121,32.68958],[-17.12182,32.68958],[-17.12208,32.68847],[-17.12292,32.69022],[-17.12458,32.6901],[-17.12401,32.69125],[-17.12708,32.69478],[-17.12875,32.69512],[-17.12958,32.69375],[-17.13002,32.69458],[-17.12964,32.69542],[-17.13042,32.69578],[-17.13208,32.69507],[-17.13237,32.69542],[-17.13125,32.69585],[-17.13125,32.69639],[-17.13208,32.69664],[-17.13292,32.69609],[-17.13456,32.69708],[-17.13542,32.69853],[-17.13875,32.70058],[-17.14125,32.70082],[-17.14292,32.70227],[-17.14625,32.70274],[-17.14745,32.70375],[-17.14792,32.70637],[-17.15042,32.7065],[-17.15208,32.70776],[-17.15542,32.70814],[-17.15625,32.70893],[-17.15875,32.70923],[-17.15963,32.71042],[-17.16625,32.7133],[-17.17292,32.71722],[-17.17958,32.71878],[-17.18042,32.7197],[-17.18208,32.71972],[-17.18292,32.7205],[-17.18792,32.72102],[-17.1894,32.72292],[-17.19208,32.72341],[-17.19332,32.72458],[-17.19375,32.72712],[-17.19708,32.72728],[-17.19792,32.728],[-17.19958,32.7281],[-17.20042,32.72888],[-17.20292,32.72905],[-17.20542,32.73025],[-17.20588,32.73125],[-17.20708,32.73144],[-17.20792,32.73219],[-17.20958,32.7323],[-17.21292,32.73399],[-17.21431,32.73625],[-17.21408,32.73958],[-17.21726,32.74292],[-17.21722,32.74375],[-17.21792,32.74444],[-17.21958,32.74436],[-17.22042,32.7451],[-17.22125,32.74511],[-17.22257,32.74625],[-17.22292,32.74792],[-17.22542,32.74842],[-17.23186,32.75458],[-17.23072,32.75542],[-17.23125,32.75697],[-17.23292,32.75764],[-17.23329,32.75708],[-17.23415,32.75708],[-17.23542,32.76125],[-17.23808,32.76375],[-17.23805,32.76458],[-17.24042,32.76511],[-17.24125,32.76575],[-17.24321,32.76792],[-17.24311,32.76875],[-17.24375,32.76939],[-17.24458,32.76929],[-17.24648,32.77125],[-17.24686,32.77375],[-17.24539,32.77958],[-17.24858,32.78625],[-17.24895,32.79042],[-17.25153,32.79625],[-17.25141,32.79792],[-17.25625,32.80269],[-17.25708,32.80256],[-17.26042,32.80504],[-17.26208,32.80562],[-17.26375,32.80736],[-17.26542,32.8076],[-17.26568,32.80792],[-17.26464,32.80875],[-17.26503,32.80958],[-17.26542,32.81013],[-17.26625,32.80865],[-17.2676,32.81208],[-17.26708,32.81521],[-17.26292,32.81728],[-17.26042,32.81708],[-17.26051,32.81792],[-17.25958,32.81792],[-17.2596,32.81875],[-17.25792,32.82036],[-17.25542,32.82125],[-17.25521,32.82208],[-17.25375,32.82259],[-17.25042,32.82542],[-17.25031,32.82625],[-17.24856,32.82792],[-17.24792,32.82934],[-17.24708,32.82958],[-17.24696,32.83125],[-17.24458,32.83357],[-17.24292,32.834],[-17.24208,32.83375],[-17.23879,32.83708],[-17.23708,32.83705],[-17.23542,32.83816],[-17.23458,32.83792],[-17.23292,32.84017],[-17.23208,32.84027],[-17.22958,32.84208],[-17.225,32.84708],[-17.22375,32.84767],[-17.22262,32.84958],[-17.22125,32.85042],[-17.21458,32.85732],[-17.21375,32.85792],[-17.21125,32.8581],[-17.20958,32.85977],[-17.20875,32.85958],[-17.20626,32.86375],[-17.20542,32.86375],[-17.20537,32.86458],[-17.20292,32.86699],[-17.20208,32.86708],[-17.20098,32.86875],[-17.19542,32.8712],[-17.19375,32.87121],[-17.19208,32.8703],[-17.1893,32.87042],[-17.18625,32.86919],[-17.18375,32.86889],[-17.18292,32.86792],[-17.17958,32.86785],[-17.17875,32.86708],[-17.17625,32.86708],[-17.17208,32.86822],[-17.16625,32.86744],[-17.16542,32.86773],[-17.16375,32.86718],[-17.16396,32.86542],[-17.16304,32.86375],[-17.16375,32.863],[-17.16544,32.86292],[-17.16458,32.86289],[-17.1621,32.86042],[-17.16208,32.85957],[-17.16042,32.85955],[-17.15875,32.85791],[-17.15458,32.85672],[-17.15125,32.85713],[-17.14958,32.85672],[-17.14882,32.85542],[-17.14958,32.85375],[-17.14877,32.85292],[-17.14837,32.84875],[-17.14708,32.84616],[-17.14625,32.84533],[-17.14115,32.84292],[-17.13958,32.84142],[-17.13592,32.83542],[-17.13292,32.83294],[-17.12929,32.83125],[-17.12542,32.8277],[-17.11958,32.82741],[-17.11708,32.82625],[-17.11542,32.82807],[-17.11292,32.82777],[-17.11125,32.82826],[-17.10792,32.82819],[-17.10542,32.82705],[-17.10375,32.82542],[-17.10292,32.82543],[-17.10167,32.82458],[-17.10042,32.82136],[-17.09912,32.82042],[-17.09889,32.81958],[-17.09792,32.82003],[-17.09663,32.81958],[-17.09777,32.81875],[-17.09633,32.81875],[-17.09625,32.81925],[-17.09491,32.81875],[-17.09387,32.81708],[-17.09458,32.81625],[-17.09208,32.81549],[-17.08958,32.81598],[-17.08792,32.81711],[-17.08292,32.81712],[-17.08125,32.81619],[-17.07875,32.81604],[-17.07542,32.81418],[-17.07208,32.81469],[-17.07125,32.81408],[-17.06792,32.81378],[-17.06708,32.81305],[-17.06542,32.81298],[-17.06375,32.81201],[-17.06208,32.8119],[-17.06042,32.81089],[-17.05875,32.81067],[-17.05792,32.80958],[-17.05292,32.80976],[-17.05042,32.80875],[-17.04958,32.80982],[-17.04375,32.81277],[-17.04208,32.81278],[-17.04042,32.81201],[-17.03875,32.81297],[-17.03542,32.81292],[-17.03458,32.8139],[-17.03208,32.81412],[-17.03125,32.81375],[-17.03136,32.81458],[-17.02708,32.81599],[-17.02542,32.81538],[-17.02458,32.81603],[-17.02292,32.81624],[-17.01625,32.81622],[-17.01542,32.81703],[-17.01458,32.81708],[-17.01435,32.81792],[-17.01292,32.81792],[-17.01255,32.81875],[-17.00958,32.82024],[-17.00625,32.82125],[-17.00375,32.8214],[-17.00125,32.82253],[-17.00042,32.82208],[-16.9995,32.82458],[-16.99875,32.82533],[-16.99792,32.82542],[-16.99708,32.82656],[-16.99625,32.82625],[-16.99601,32.82708],[-16.99208,32.83048],[-16.98708,32.83062],[-16.98625,32.82958],[-16.98452,32.82958],[-16.98292,32.82791],[-16.98125,32.82795],[-16.97958,32.82884],[-16.97292,32.82958],[-16.97284,32.83042],[-16.97125,32.83063],[-16.97042,32.82958],[-16.96765,32.82875],[-16.9684,32.82792],[-16.96792,32.82737],[-16.96708,32.82812],[-16.96625,32.82698],[-16.96458,32.82656],[-16.96375,32.82679],[-16.96125,32.82923],[-16.95875,32.82983],[-16.95375,32.82991],[-16.95208,32.83092],[-16.94875,32.83102],[-16.94625,32.83196],[-16.94458,32.83194],[-16.94208,32.83042],[-16.94125,32.83164],[-16.93792,32.83075],[-16.93375,32.83292],[-16.92875,32.83288],[-16.92792,32.83366],[-16.92458,32.83301],[-16.92125,32.83385],[-16.91875,32.83375],[-16.91883,32.83458],[-16.91625,32.83506],[-16.91292,32.83683],[-16.90625,32.83694],[-16.90458,32.83771],[-16.90375,32.83761],[-16.90286,32.83708],[-16.90208,32.83525],[-16.90029,32.83458],[-16.89875,32.83319],[-16.89845,32.83208],[-16.89625,32.82986],[-16.89208,32.82958],[-16.89125,32.83027],[-16.89042,32.83016],[-16.8836,32.82708],[-16.88125,32.8248],[-16.87952,32.82125],[-16.87458,32.81632],[-16.87208,32.81492],[-16.87042,32.81292],[-16.86907,32.81292],[-16.86708,32.81118],[-16.86625,32.81116],[-16.86542,32.81188],[-16.86375,32.81162],[-16.86179,32.80792],[-16.85991,32.80708],[-16.86,32.80625],[-16.85542,32.80553],[-16.85458,32.80497],[-16.85375,32.80777],[-16.85305,32.80542],[-16.85375,32.80325],[-16.85458,32.80286],[-16.85628,32.80042],[-16.85642,32.79792],[-16.85375,32.79697],[-16.85208,32.79544],[-16.84958,32.79561],[-16.84619,32.79208],[-16.84628,32.79125],[-16.84712,32.79125],[-16.84714,32.79208],[-16.84792,32.79284],[-16.84875,32.79276],[-16.84958,32.79194],[-16.8527,32.78542],[-16.85208,32.78418],[-16.84792,32.78128],[-16.84334,32.78542],[-16.84375,32.78686],[-16.84463,32.78708],[-16.84458,32.78792],[-16.84542,32.78787],[-16.84542,32.78875],[-16.84628,32.78875],[-16.84625,32.79122],[-16.84527,32.79042],[-16.84458,32.78884],[-16.84375,32.78845],[-16.84125,32.78787],[-16.83875,32.788],[-16.83542,32.78711],[-16.83542,32.78611],[-16.83458,32.7857],[-16.83375,32.78387],[-16.83292,32.78372],[-16.8312,32.78208],[-16.83125,32.78066],[-16.83208,32.78125],[-16.83208,32.78042],[-16.83125,32.7804],[-16.83042,32.77917],[-16.83038,32.77792],[-16.82963,32.77708],[-16.83012,32.77542],[-16.82875,32.77531],[-16.82792,32.77602],[-16.82522,32.77542],[-16.82585,32.77458],[-16.82558,32.77208],[-16.82632,32.77125],[-16.82629,32.77042],[-16.82542,32.77036],[-16.82377,32.76875],[-16.82375,32.7679],[-16.82292,32.76789],[-16.82208,32.76708],[-16.82042,32.76705],[-16.81958,32.76779],[-16.81375,32.76772],[-16.81292,32.767],[-16.80958,32.76701],[-16.80625,32.76452],[-16.80375,32.76565],[-16.80208,32.76571],[-16.79708,32.76375],[-16.79625,32.76431],[-16.79458,32.76429],[-16.79292,32.76614],[-16.79274,32.76458],[-16.78792,32.7647],[-16.78542,32.76331],[-16.78292,32.7611],[-16.78042,32.75981],[-16.7783,32.75958],[-16.77792,32.75875],[-16.77708,32.75875],[-16.77691,32.75958],[-16.77375,32.76027],[-16.77125,32.75891],[-16.76888,32.75958],[-16.76625,32.75949],[-16.75759,32.75708],[-16.75125,32.75706],[-16.74958,32.75631],[-16.74875,32.75483],[-16.74542,32.7549],[-16.73958,32.75263],[-16.73865,32.75125],[-16.73688,32.75042],[-16.73642,32.74875],[-16.7344,32.74875],[-16.73125,32.75233],[-16.73125,32.74948],[-16.72708,32.74935],[-16.72542,32.74799],[-16.72292,32.74753],[-16.72042,32.74811],[-16.72022,32.74708],[-16.71958,32.74668],[-16.71792,32.74657],[-16.71708,32.74794],[-16.71625,32.74827],[-16.71596,32.74708],[-16.7166,32.74625],[-16.71567,32.74375],[-16.71636,32.74208],[-16.71806,32.74042],[-16.72542,32.73993],[-16.72625,32.73907],[-16.72875,32.73854],[-16.73125,32.73537],[-16.73292,32.73622],[-16.73375,32.73588],[-16.73958,32.7369],[-16.74375,32.73499],[-16.74486,32.73292],[-16.74636,32.73208],[-16.74647,32.72958],[-16.74708,32.72896],[-16.74885,32.72875],[-16.74894,32.72625],[-16.74958,32.72558],[-16.75125,32.72549],[-16.75208,32.72464],[-16.75296,32.72458],[-16.75303,32.72208],[-16.75466,32.72042],[-16.75625,32.71734],[-16.76125,32.71493],[-16.76208,32.71556],[-16.76354,32.71542],[-16.76379,32.71375],[-16.76152,32.71125],[-16.76194,32.70875],[-16.76458,32.70795],[-16.76637,32.70625],[-16.77159,32.69458],[-16.77125,32.69195],[-16.77129,32.69292],[-16.77208,32.69353],[-16.77443,32.69208],[-16.77562,32.69042],[-16.77625,32.68841],[-16.77476,32.68792],[-16.77708,32.68696],[-16.78042,32.6868],[-16.78125,32.68605],[-16.78375,32.6852],[-16.78708,32.68576],[-16.78875,32.68509],[-16.78958,32.68563],[-16.79125,32.68555],[-16.79232,32.68292],[-16.79375,32.68159],[-16.79487,32.68125],[-16.79542,32.67858],[-16.79708,32.67733],[-16.79719,32.67625],[-16.79953,32.67375],[-16.79958,32.67292],[-16.80095,32.67125],[-16.80135,32.66625],[-16.80325,32.66292],[-16.8036,32.66125],[-16.80708,32.66053],[-16.80722,32.65958],[-16.80626,32.65875],[-16.80875,32.65659],[-16.81037,32.65375],[-16.81125,32.65363],[-16.81375,32.65043],[-16.81542,32.65012],[-16.81792,32.64847],[-16.82033,32.64792],[-16.82042,32.64699],[-16.82292,32.64504],[-16.82375,32.64498],[-16.82542,32.64309],[-16.82635,32.64292],[-16.82508,32.64208],[-16.82625,32.64175],[-16.82875,32.63958],[-16.82968,32.63958],[-16.82875,32.63958],[-16.82875,32.64051],[-16.82792,32.64042],[-16.82824,32.64208],[-16.82875,32.64227],[-16.83542,32.6402],[-16.83958,32.64],[-16.84542,32.63762],[-16.85708,32.6375],[-16.86125,32.63849],[-16.86458,32.63993],[-16.86708,32.64007],[-16.86792,32.64063],[-16.86958,32.64072],[-16.87042,32.64143],[-16.87458,32.64211],[-16.87708,32.64396],[-16.88542,32.64426],[-16.88958,32.64567],[-16.89375,32.64572],[-16.90208,32.64686],[-16.90375,32.64623],[-16.90625,32.64417],[-16.90792,32.6441],[-16.90875,32.64317],[-16.91208,32.64252],[-16.91375,32.64159],[-16.91375,32.64072]]},"properties":{"source":"emodnet_dtm_2024","level":2}},{"type":"Feature","geometry":{"type":"LineString","coordinates":[[-17.02875,32.65644],[-17.02875,32.65569],[-17.02875,32.65644]]},"properties":{"source":"emodnet_dtm_2024","level":2}},{"type":"Feature","geometry":{"type":"LineString","coordinates":[[-17.12875,32.69386],[-17.12875,32.69288],[-17.12958,32.69375],[-17.12875,32.69386]]},"properties":{"source":"emodnet_dtm_2024","level":2}},{"type":"Feature","geometry":{"type":"LineString","coordinates":[[-16.66208,32.7288],[-16.66208,32.7288]]},"properties":{"source":"emodnet_dtm_2024","level":2}},{"type":"Feature","geometry":{"type":"LineString","coordinates":[[-16.65875,32.72966],[-16.65963,32.72958],[-16.65875,32.72966]]},"properties":{"source":"emodnet_dtm_2024","level":2}},{"type":"Feature","geometry":{"type":"LineString","coordinates":[[-16.67208,32.73574],[-16.67175,32.73542],[-16.67262,32.73458],[-16.6747,32.73458],[-16.67458,32.73586],[-16.67208,32.73574]]},"properties":{"source":"emodnet_dtm_2024","level":2}},{"type":"Feature","geometry":{"type":"LineString","coordinates":[[-16.67958,32.74006],[-16.67923,32.73958],[-16.67958,32.73912],[-16.68125,32.73802],[-16.68375,32.74031],[-16.68708,32.74129],[-16.68845,32.74292],[-16.68867,32.74458],[-16.68792,32.74572],[-16.68625,32.74646],[-16.68458,32.74643],[-16.68292,32.74512],[-16.68192,32.74208],[-16.67958,32.74006]]},"properties":{"source":"emodnet_dtm_2024","level":2}},{"type":"Feature","geometry":{"type":"LineString","coordinates":[[-16.69708,32.74078],[-16.69708,32.73917],[-16.69875,32.73887],[-16.69958,32.73996],[-16.70036,32.73875],[-16.70208,32.73856],[-16.7047,32.73958],[-16.70625,32.74077],[-16.70875,32.74029],[-16.71042,32.73938],[-16.71145,32.73958],[-16.71269,32.74125],[-16.71354,32.74375],[-16.7132,32.74708],[-16.71247,32.74875],[-16.71323,32.74958],[-16.71208,32.74983],[-16.71125,32.74901],[-16.71042,32.74953],[-16.70625,32.74879],[-16.70542,32.75003],[-16.70375,32.74943],[-16.70388,32.74792],[-16.70042,32.74749],[-16.69626,32.74625],[-16.69653,32.74458],[-16.6973,32.74375],[-16.69708,32.74078]]},"properties":{"source":"emodnet_dtm_2024","level":2}},{"type":"Feature","geometry":{"type":"LineString","coordinates":[[-16.69542,32.74568],[-16.69542,32.74532],[-16.69542,32.74568]]},"properties":{"source":"emodnet_dtm_2024","level":2}},{"type":"Feature","geometry":{"type":"LineString","coordinates":[[-16.68875,32.74708],[-16.68875,32.74594],[-16.68939,32.74875],[-16.69042,32.74884],[-16.69057,32.74708],[-16.68875,32.74708]]},"properties":{"source":"emodnet_dtm_2024","level":2}},{"type":"Feature","geometry":{"type":"LineString","coordinates":[[-16.72208,32.74888],[-16.72208,32.74847],[-16.72252,32.74875],[-16.72208,32.74888]]},"properties":{"source":"emodnet_dtm_2024","level":2}},{"type":"Feature","geometry":{"type":"LineString","coordinates":[[-16.71458,32.74903],[-16.71458,32.74844],[-16.71534,32.74875],[-16.71458,32.74903]]},"properties":{"source":"emodnet_dtm_2024","level":2}},{"type":"Feature","geometry":{"type":"LineString","coordinates":[[-16.70625,32.75065],[-16.70572,32.75042],[-16.70625,32.75004],[-16.70708,32.75],[-16.70736,32.75042],[-16.70625,32.75065]]},"properties":{"source":"emodnet_dtm_2024","level":2}},{"type":"Feature","geometry":{"type":"LineString","coordinates":[[-16.70958,32.75145],[-16.70958,32.75092],[-16.70958,32.75145]]},"properties":{"source":"emodnet_dtm_2024","level":2}},{"type":"Feature","geometry":{"type":"LineString","coordinates":[[-16.69292,32.75216],[-16.69292,32.75029],[-16.69458,32.75028],[-16.69542,32.75113],[-16.69792,32.75125],[-16.69625,32.75219],[-16.69292,32.75216]]},"properties":{"source":"emodnet_dtm_2024","level":2}},{"type":"Feature","geometry":{"type":"LineString","coordinates":[[-17.23292,32.75671],[-17.23292,32.75567],[-17.23292,32.75671]]},"properties":{"source":"emodnet_dtm_2024","level":2}},{"type":"Feature","geometry":{"type":"LineString","coordinates":[[-16.79042,32.76627],[-16.79272,32.76625],[-16.79042,32.76627]]},"properties":{"source":"emodnet_dtm_2024","level":2}},{"type":"Feature","geometry":{"type":"LineString","coordinates":[[-16.85458,32.80821],[-16.85395,32.80792],[-16.85542,32.80697],[-16.85792,32.80708],[-16.85458,32.80821]]},"properties":{"source":"emodnet_dtm_2024","level":2}},{"type":"Feature","geometry":{"type":"LineString","coordinates":[[-17.18125,32.87738],[-17.18125,32.87617],[-17.18182,32.87708],[-17.18125,32.87738]]},"properties":{"source":"emodnet_dtm_2024","level":2}},{"type":"Feature","geometry":{"type":"LineString","coordinates":[[-16.38375,32.99631],[-16.38375,32.99532],[-16.38375,32.99631]]},"properties":{"source":"emodnet_dtm_2024","level":2}},{"type":"Feature","geometry":{"type":"LineString","coordinates":[[-16.38042,33.00262],[-16.38004,33.00125],[-16.38125,32.99992],[-16.38682,32.99958],[-16.38786,32.99792],[-16.38792,32.99617],[-16.38799,33.00042],[-16.38875,33.00103],[-16.39042,33.00074],[-16.39058,33.00208],[-16.39223,33.00375],[-16.39292,33.00528],[-16.39625,33.00542],[-16.39625,33.00375],[-16.39533,33.00375],[-16.39625,33.00375],[-16.39625,33.00542],[-16.39458,33.00632],[-16.39394,33.00875],[-16.39292,33.00692],[-16.39208,33.00835],[-16.39042,33.00947],[-16.38492,33.01042],[-16.38292,33.01648],[-16.3824,33.01375],[-16.38125,33.0136],[-16.38061,33.01292],[-16.38061,33.00875],[-16.38125,33.00774],[-16.38208,33.00776],[-16.3827,33.00375],[-16.38125,33.00357],[-16.38042,33.00262]]},"properties":{"source":"emodnet_dtm_2024","level":2}},{"type":"Feature","geometry":{"type":"LineString","coordinates":[[-16.39375,33.00302],[-16.39375,33.00118],[-16.39469,33.00292],[-16.39375,33.00302]]},"properties":{"source":"emodnet_dtm_2024","level":2}},{"type":"Feature","geometry":{"type":"LineString","coordinates":[[-16.39208,33.01049],[-16.39208,33.0093],[-16.39208,33.01049]]},"properties":{"source":"emodnet_dtm_2024","level":2}},{"type":"Feature","geometry":{"type":"LineString","coordinates":[[-16.38458,33.01721],[-16.38625,33.017],[-16.38692,33.01542],[-16.38526,33.01542],[-16.38542,33.01708],[-16.38625,33.01721],[-16.3865,33.01792],[-16.38625,33.01968],[-16.38542,33.01991],[-16.38542,33.01708],[-16.38458,33.01721]]},"properties":{"source":"emodnet_dtm_2024","level":2}},{"type":"Feature","geometry":{"type":"LineString","coordinates":[[-16.39292,33.02974],[-16.39208,33.02908],[-16.3907,33.03125],[-16.39292,33.03228],[-16.3936,33.03125],[-16.39292,33.02974]]},"properties":{"source":"emodnet_dtm_2024","level":2}},{"type":"Feature","geometry":{"type":"LineString","coordinates":[[-16.41042,33.0338],[-16.41042,33.0338]]},"properties":{"source":"emodnet_dtm_2024","level":2}},{"type":"Feature","geometry":{"type":"LineString","coordinates":[[-16.40125,33.04016],[-16.40042,33.03949],[-16.39664,33.04292],[-16.39458,33.04328],[-16.39208,33.04471],[-16.38958,33.04723],[-16.38875,33.04708],[-16.3887,33.04875],[-16.38505,33.05042],[-16.38458,33.05301],[-16.38089,33.05875],[-16.38163,33.06042],[-16.38125,33.06125],[-16.38208,33.06125],[-16.38258,33.06208],[-16.38042,33.06375],[-16.38069,33.06458],[-16.37999,33.06625],[-16.3778,33.06875],[-16.37958,33.07151],[-16.37958,33.07403],[-16.37872,33.07542],[-16.37548,33.07708],[-16.37454,33.07958],[-16.37375,33.08044],[-16.37292,33.08042],[-16.37304,33.08125],[-16.37125,33.08281],[-16.36708,33.08307],[-16.36671,33.08375],[-16.36542,33.08412],[-16.36375,33.08419],[-16.36292,33.08375],[-16.36129,33.08625],[-16.35875,33.08792],[-16.35668,33.09125],[-16.35458,33.09323],[-16.35125,33.09367],[-16.35042,33.09292],[-16.34958,33.09438],[-16.34875,33.09334],[-16.34657,33.09375],[-16.3494,33.09458],[-16.34625,33.09658],[-16.34542,33.09655],[-16.34292,33.09868],[-16.34125,33.09865],[-16.33958,33.09989],[-16.33792,33.10005],[-16.33708,33.09965],[-16.33625,33.10047],[-16.33542,33.10042],[-16.33572,33.10125],[-16.33292,33.10294],[-16.32958,33.10298],[-16.32604,33.10625],[-16.32542,33.10825],[-16.32292,33.10956],[-16.32208,33.10943],[-16.32042,33.10799],[-16.32025,33.10708],[-16.31792,33.10466],[-16.31292,33.10376],[-16.3113,33.10208],[-16.31125,33.10125],[-16.31042,33.10123],[-16.30875,33.0995],[-16.3066,33.09875],[-16.30625,33.09804],[-16.30458,33.09892],[-16.30375,33.09708],[-16.30208,33.09817],[-16.30042,33.09796],[-16.29823,33.10042],[-16.29375,33.10161],[-16.29292,33.10125],[-16.29292,33.09958],[-16.28708,33.09958],[-16.28635,33.10042],[-16.28648,33.10208],[-16.28708,33.10279],[-16.28708,33.09958],[-16.28774,33.09875],[-16.29042,33.09757],[-16.29163,33.09625],[-16.29208,33.08914],[-16.29478,33.08542],[-16.29451,33.08375],[-16.29247,33.08125],[-16.29088,33.07708],[-16.28917,33.07625],[-16.29011,33.07542],[-16.29038,33.07375],[-16.29208,33.07325],[-16.29292,33.07388],[-16.29375,33.07306],[-16.29471,33.07292],[-16.29561,33.06792],[-16.29712,33.06708],[-16.29625,33.06537],[-16.29542,33.0653],[-16.29474,33.06458],[-16.29458,33.0611],[-16.2926,33.06042],[-16.29216,33.05875],[-16.29313,33.05792],[-16.29625,33.05759],[-16.29708,33.05816],[-16.29792,33.05746],[-16.29958,33.05761],[-16.30125,33.05859],[-16.30281,33.05875],[-16.30182,33.05958],[-16.30208,33.06045],[-16.30309,33.06042],[-16.30375,33.05965],[-16.30458,33.06059],[-16.31125,33.06069],[-16.31292,33.06086],[-16.31375,33.06144],[-16.31542,33.06141],[-16.31625,33.0606],[-16.32458,33.06053],[-16.32542,33.05902],[-16.32792,33.05892],[-16.32958,33.05818],[-16.33125,33.05679],[-16.33292,33.05651],[-16.33375,33.05498],[-16.33625,33.05476],[-16.33792,33.05311],[-16.34042,33.05217],[-16.34054,33.05125],[-16.34292,33.04906],[-16.34458,33.04886],[-16.34554,33.04792],[-16.34561,33.04708],[-16.34792,33.04481],[-16.34898,33.04458],[-16.35208,33.04086],[-16.35754,33.03875],[-16.36042,33.03542],[-16.3632,33.03458],[-16.36417,33.03208],[-16.36542,33.03158],[-16.36587,33.03042],[-16.37042,33.02812],[-16.37179,33.02625],[-16.37542,33.02475],[-16.37708,33.02317],[-16.38125,33.02338],[-16.38292,33.02295],[-16.38433,33.02542],[-16.38625,33.02666],[-16.38848,33.02708],[-16.38875,33.02792],[-16.39292,33.02875],[-16.39542,33.03223],[-16.39708,33.03607],[-16.39958,33.03694],[-16.40042,33.03621],[-16.40125,33.03683],[-16.40375,33.03542],[-16.40542,33.03521],[-16.40542,33.03553],[-16.40375,33.03542],[-16.40458,33.03684],[-16.40792,33.03712],[-16.41125,33.03844],[-16.41202,33.03792],[-16.41208,33.03617],[-16.41221,33.04042],[-16.41125,33.0415],[-16.40875,33.04171],[-16.40458,33.04008],[-16.40125,33.04016]]},"properties":{"source":"emodnet_dtm_2024","level":2}},{"type":"Feature","geometry":{"type":"LineString","coordinates":[[-16.28042,33.0526],[-16.28007,33.05208],[-16.28125,33.05035],[-16.28292,33.05107],[-16.28384,33.05208],[-16.28357,33.05292],[-16.28208,33.05342],[-16.28125,33.0535],[-16.28042,33.0526]]},"properties":{"source":"emodnet_dtm_2024","level":2}},{"type":"Feature","geometry":{"type":"LineString","coordinates":[[-16.28542,33.05557],[-16.28506,33.05458],[-16.28542,33.05428],[-16.28829,33.05625],[-16.28792,33.05662],[-16.28625,33.05637],[-16.28542,33.05557]]},"properties":{"source":"emodnet_dtm_2024","level":2}},{"type":"Feature","geometry":{"type":"LineString","coordinates":[[-16.28375,33.05635],[-16.28375,33.0551],[-16.28375,33.05635]]},"properties":{"source":"emodnet_dtm_2024","level":2}},{"type":"Feature","geometry":{"type":"LineString","coordinates":[[-16.29458,33.09734],[-16.29375,33.09682],[-16.29322,33.09708],[-16.29298,33.09792],[-16.29375,33.09871],[-16.29458,33.0986],[-16.29542,33.09942],[-16.29736,33.09875],[-16.29653,33.09792],[-16.29458,33.09734]]},"properties":{"source":"emodnet_dtm_2024","level":2}},{"type":"Feature","geometry":{"type":"LineString","coordinates":[[-16.36708,33.10136],[-16.36704,33.10042],[-16.36792,33.09976],[-16.36792,33.10224],[-16.36708,33.10136]]},"properties":{"source":"emodnet_dtm_2024","level":2}},{"type":"Feature","geometry":{"type":"LineString","coordinates":[[-16.36875,33.10299],[-16.36958,33.10286],[-16.36958,33.10362],[-16.36875,33.10299]]},"properties":{"source":"emodnet_dtm_2024","level":2}},{"type":"Feature","geometry":{"type":"LineString","coordinates":[[-16.28792,33.1034],[-16.28727,33.10292],[-16.28792,33.10288],[-16.28792,33.1034]]},"properties":{"source":"emodnet_dtm_2024","level":2}},{"type":"Feature","geometry":{"type":"LineString","coordinates":[[-16.37042,33.10381],[-16.36987,33.10375],[-16.37128,33.10375],[-16.37042,33.10381]]},"properties":{"source":"emodnet_dtm_2024","level":2}},{"type":"Feature","geometry":{"type":"LineString","coordinates":[[-16.28875,33.10393],[-16.28833,33.10375],[-16.29103,33.10375],[-16.28875,33.10393]]},"properties":{"source":"emodnet_dtm_2024","level":2}},{"type":"Feature","geometry":{"type":"LineString","coordinates":[[-16.28458,33.11331],[-16.28458,33.11163],[-16.28458,33.11331]]},"properties":{"source":"emodnet_dtm_2024","level":2}},{"type":"Feature","geometry":{"type":"LineString","coordinates":[[-16.28542,33.11413],[-16.28482,33.11375],[-16.28792,33.11375],[-16.28708,33.11432],[-16.28542,33.11413]]},"properties":{"source":"emodnet_dtm_2024","level":2}},{"type":"Feature","geometry":{"type":"LineString","coordinates":[[-16.28375,33.1272],[-16.28363,33.12292],[-16.28625,33.1214],[-16.28625,33.12297],[-16.28458,33.12296],[-16.28378,33.12375],[-16.28375,33.1272]]},"properties":{"source":"emodnet_dtm_2024","level":2}},{"type":"Feature","geometry":{"type":"LineString","coordinates":[[-16.28458,33.12793],[-16.2872,33.12792],[-16.28458,33.12793]]},"properties":{"source":"emodnet_dtm_2024","level":2}},{"type":"Feature","geometry":{"type":"LineString","coordinates":[[-17.02813,32.65375],[-17.02612,32.65375],[-17.02708,32.65344],[-17.02813,32.65375]]},"properties":{"source":"emodnet_dtm_2024","level":2}},{"type":"Feature","geometry":{"type":"LineString","coordinates":[[-16.77213,32.69125],[-16.77161,32.69125],[-16.77213,32.69125]]},"properties":{"source":"emodnet_dtm_2024","level":2}},{"type":"Feature","geometry":{"type":"LineString","coordinates":[[-16.70355,32.74958],[-16.69792,32.75125],[-16.69792,32.75028],[-16.70042,32.75042],[-16.70042,32.74849],[-16.70125,32.74938],[-16.70355,32.74958]]},"properties":{"source":"emodnet_dtm_2024","level":2}},{"type":"Feature","geometry":{"type":"LineString","coordinates":[[-16.38889,33.01208],[-16.38708,33.01518],[-16.38698,33.01375],[-16.38792,33.01375],[-16.38792,33.01281],[-16.38875,33.01292],[-16.38875,33.01112],[-16.38923,33.01125],[-16.38889,33.01208]]},"properties":{"source":"emodnet_dtm_2024","level":2}},{"type":"Feature","geometry":{"type":"LineString","coordinates":[[-16.29295,33.10208],[-16.29208,33.10288],[-16.29208,33.10119],[-16.29292,33.10125],[-16.29295,33.10208]]},"properties":{"source":"emodnet_dtm_2024","level":2}},{"type":"Feature","geometry":{"type":"LineString","coordinates":[[-16.37224,33.10292],[-16.37208,33.09958],[-16.37254,33.10042],[-16.37224,33.10292]]},"properties":{"source":"emodnet_dtm_2024","level":2}},{"type":"Feature","geometry":{"type":"LineString","coordinates":[[-16.29203,33.10292],[-16.29125,33.10356],[-16.29125,33.10289],[-16.29203,33.10292]]},"properties":{"source":"emodnet_dtm_2024","level":2}},{"type":"Feature","geometry":{"type":"LineString","coordinates":[[-16.28895,33.11292],[-16.28792,33.11375],[-16.28792,33.11125],[-16.28708,33.11063],[-16.28476,33.11125],[-16.28792,33.11125],[-16.28895,33.11292]]},"properties":{"source":"emodnet_dtm_2024","level":2}},{"type":"Feature","geometry":{"type":"LineString","coordinates":[[-16.28885,33.12625],[-16.28792,33.12755],[-16.28792,33.12151],[-16.28885,33.12208],[-16.28885,33.12625]]},"properties":{"source":"emodnet_dtm_2024","level":2}},{"type":"Feature","geometry":{"type":"LineString","coordinates":[[-16.97208,32.82835],[-16.97125,32.82823],[-16.97073,32.82875],[-16.97125,32.82927],[-16.97208,32.82921],[-16.97255,32.82875],[-16.97208,32.82835]]},"properties":{"source":"emodnet_dtm_2024","level":2}},{"type":"Feature","geometry":{"type":"LineString","coordinates":[[-16.37125,33.09964],[-16.36805,33.09958],[-16.36848,33.09875],[-16.37042,33.09773],[-16.37125,33.09811],[-16.37208,33.09958],[-16.37125,33.09964]]},"properties":{"source":"emodnet_dtm_2024","level":2}},{"type":"Feature","geometry":{"type":"LineString","coordinates":[[-16.32375,33.10651],[-16.32192,33.10708],[-16.3215,33.10792],[-16.32208,33.10846],[-16.32375,33.10853],[-16.32439,33.10792],[-16.32375,33.10651]]},"properties":{"source":"emodnet_dtm_2024","level":2}},{"type":"Feature","geometry":{"type":"LineString","coordinates":[[-17.12125,32.68768],[-17.12125,32.68808],[-17.12068,32.68792],[-17.12125,32.68768]]},"properties":{"source":"emodnet_dtm_2024","level":2}},{"type":"Feature","geometry":{"type":"LineString","coordinates":[[-16.28708,33.1211],[-16.28754,33.12125],[-16.28649,33.12125],[-16.28708,33.1211]]},"properties":{"source":"emodnet_dtm_2024","level":2}},{"type":"Feature","geometry":{"type":"LineString","coordinates":[[-16.53681,32.55542],[-16.53646,32.55625],[-16.53757,32.55625],[-16.53741,32.55542],[-16.53708,32.55509],[-16.53681,32.55542]]},"properties":{"source":"emodnet_dtm_2024","level":2}},{"type":"Feature","geometry":{"type":"LineString","coordinates":[[-17.16621,32.86375],[-17.16625,32.86467],[-17.16621,32.86375]]},"properties":{"source":"emodnet_dtm_2024","level":2}},{"type":"Feature","geometry":{"type":"LineString","coordinates":[[-16.48375,32.41208],[-16.48375,32.41208]]},"properties":{"source":"emodnet_dtm_2024","level":2}},{"type":"Feature","geometry":{"type":"LineString","coordinates":[[-16.50125,32.49042],[-16.50125,32.49042]]},"properties":{"source":"emodnet_dtm_2024","level":2}},{"type":"Feature","geometry":{"type":"LineString","coordinates":[[-16.51125,32.53458],[-16.51125,32.53458]]},"properties":{"source":"emodnet_dtm_2024","level":2}},{"type":"Feature","geometry":{"type":"LineString","coordinates":[[-16.53792,32.54832],[-16.53792,32.54918],[-16.53834,32.54875],[-16.53792,32.54832]]},"properties":{"source":"emodnet_dtm_2024","level":2}},{"type":"Feature","geometry":{"type":"LineString","coordinates":[[-16.53792,32.55042],[-16.53792,32.55042]]},"properties":{"source":"emodnet_dtm_2024","level":2}},{"type":"Feature","geometry":{"type":"LineString","coordinates":[[-16.53958,32.56042],[-16.53958,32.56042]]},"properties":{"source":"emodnet_dtm_2024","level":2}},{"type":"Feature","geometry":{"type":"LineString","coordinates":[[-16.77708,32.75875],[-16.77708,32.75875]]},"properties":{"source":"emodnet_dtm_2024","level":2}},{"type":"Feature","geometry":{"type":"LineString","coordinates":[[-16.79958,32.76292],[-16.79958,32.76292]]},"properties":{"source":"emodnet_dtm_2024","level":2}},{"type":"Feature","geometry":{"type":"LineString","coordinates":[[-16.79708,32.76375],[-16.79708,32.76375]]},"properties":{"source":"emodnet_dtm_2024","level":2}},{"type":"Feature","geometry":{"type":"LineString","coordinates":[[-17.24625,32.77625],[-17.24625,32.77625]]},"properties":{"source":"emodnet_dtm_2024","level":2}},{"type":"Feature","geometry":{"type":"LineString","coordinates":[[-17.24792,32.78542],[-17.24792,32.78542]]},"properties":{"source":"emodnet_dtm_2024","level":2}},{"type":"Feature","geometry":{"type":"LineString","coordinates":[[-16.85708,32.79708],[-16.85708,32.79708]]},"properties":{"source":"emodnet_dtm_2024","level":2}},{"type":"Feature","geometry":{"type":"LineString","coordinates":[[-16.85792,32.79958],[-16.85792,32.79958]]},"properties":{"source":"emodnet_dtm_2024","level":2}},{"type":"Feature","geometry":{"type":"LineString","coordinates":[[-17.05042,32.80875],[-17.05042,32.80875]]},"properties":{"source":"emodnet_dtm_2024","level":2}},{"type":"Feature","geometry":{"type":"LineString","coordinates":[[-17.05792,32.80958],[-17.05792,32.80958]]},"properties":{"source":"emodnet_dtm_2024","level":2}},{"type":"Feature","geometry":{"type":"LineString","coordinates":[[-17.04792,32.80958],[-17.04792,32.80958]]},"properties":{"source":"emodnet_dtm_2024","level":2}},{"type":"Feature","geometry":{"type":"LineString","coordinates":[[-17.03542,32.81292],[-17.03542,32.81292]]},"properties":{"source":"emodnet_dtm_2024","level":2}},{"type":"Feature","geometry":{"type":"LineString","coordinates":[[-16.87042,32.81292],[-16.87042,32.81292]]},"properties":{"source":"emodnet_dtm_2024","level":2}},{"type":"Feature","geometry":{"type":"LineString","coordinates":[[-17.07292,32.81375],[-17.07292,32.81375]]},"properties":{"source":"emodnet_dtm_2024","level":2}},{"type":"Feature","geometry":{"type":"LineString","coordinates":[[-17.01458,32.81708],[-17.01458,32.81708]]},"properties":{"source":"emodnet_dtm_2024","level":2}},{"type":"Feature","geometry":{"type":"LineString","coordinates":[[-17.01292,32.81792],[-17.01292,32.81792]]},"properties":{"source":"emodnet_dtm_2024","level":2}},{"type":"Feature","geometry":{"type":"LineString","coordinates":[[-17.25542,32.82125],[-17.25542,32.82125]]},"properties":{"source":"emodnet_dtm_2024","level":2}},{"type":"Feature","geometry":{"type":"LineString","coordinates":[[-17.00458,32.82125],[-17.00458,32.82125]]},"properties":{"source":"emodnet_dtm_2024","level":2}},{"type":"Feature","geometry":{"type":"LineString","coordinates":[[-17.00042,32.82208],[-17.00042,32.82208]]},"properties":{"source":"emodnet_dtm_2024","level":2}},{"type":"Feature","geometry":{"type":"LineString","coordinates":[[-17.25042,32.82542],[-17.25042,32.82542]]},"properties":{"source":"emodnet_dtm_2024","level":2}},{"type":"Feature","geometry":{"type":"LineString","coordinates":[[-17.10375,32.82542],[-17.10375,32.82542]]},"properties":{"source":"emodnet_dtm_2024","level":2}},{"type":"Feature","geometry":{"type":"LineString","coordinates":[[-16.99792,32.82542],[-16.99792,32.82542]]},"properties":{"source":"emodnet_dtm_2024","level":2}},{"type":"Feature","geometry":{"type":"LineString","coordinates":[[-17.11708,32.82625],[-17.11708,32.82625]]},"properties":{"source":"emodnet_dtm_2024","level":2}},{"type":"Feature","geometry":{"type":"LineString","coordinates":[[-16.99625,32.82625],[-16.99625,32.82625]]},"properties":{"source":"emodnet_dtm_2024","level":2}},{"type":"Feature","geometry":{"type":"LineString","coordinates":[[-16.97042,32.82792],[-16.97042,32.82792]]},"properties":{"source":"emodnet_dtm_2024","level":2}},{"type":"Feature","geometry":{"type":"LineString","coordinates":[[-17.24708,32.82958],[-17.24708,32.82958]]},"properties":{"source":"emodnet_dtm_2024","level":2}},{"type":"Feature","geometry":{"type":"LineString","coordinates":[[-16.99292,32.82958],[-16.99292,32.82958]]},"properties":{"source":"emodnet_dtm_2024","level":2}},{"type":"Feature","geometry":{"type":"LineString","coordinates":[[-16.98625,32.82958],[-16.98625,32.82958]]},"properties":{"source":"emodnet_dtm_2024","level":2}},{"type":"Feature","geometry":{"type":"LineString","coordinates":[[-16.89208,32.82958],[-16.89208,32.82958]]},"properties":{"source":"emodnet_dtm_2024","level":2}},{"type":"Feature","geometry":{"type":"LineString","coordinates":[[-16.94792,32.83042],[-16.94792,32.83042]]},"properties":{"source":"emodnet_dtm_2024","level":2}},{"type":"Feature","geometry":{"type":"LineString","coordinates":[[-16.94208,32.83042],[-16.94208,32.83042]]},"properties":{"source":"emodnet_dtm_2024","level":2}},{"type":"Feature","geometry":{"type":"LineString","coordinates":[[-16.93125,32.83122],[-16.93125,32.83122]]},"properties":{"source":"emodnet_dtm_2024","level":2}},{"type":"Feature","geometry":{"type":"LineString","coordinates":[[-17.24208,32.83375],[-17.24208,32.83375]]},"properties":{"source":"emodnet_dtm_2024","level":2}},{"type":"Feature","geometry":{"type":"LineString","coordinates":[[-17.13625,32.83458],[-17.13625,32.83458]]},"properties":{"source":"emodnet_dtm_2024","level":2}},{"type":"Feature","geometry":{"type":"LineString","coordinates":[[-17.23458,32.83792],[-17.23458,32.83792]]},"properties":{"source":"emodnet_dtm_2024","level":2}},{"type":"Feature","geometry":{"type":"LineString","coordinates":[[-17.23375,32.83875],[-17.23375,32.83875]]},"properties":{"source":"emodnet_dtm_2024","level":2}},{"type":"Feature","geometry":{"type":"LineString","coordinates":[[-17.22958,32.84208],[-17.22958,32.84208]]},"properties":{"source":"emodnet_dtm_2024","level":2}},{"type":"Feature","geometry":{"type":"LineString","coordinates":[[-17.22542,32.84625],[-17.22542,32.84625]]},"properties":{"source":"emodnet_dtm_2024","level":2}},{"type":"Feature","geometry":{"type":"LineString","coordinates":[[-17.22292,32.84708],[-17.22292,32.84708]]},"properties":{"source":"emodnet_dtm_2024","level":2}},{"type":"Feature","geometry":{"type":"LineString","coordinates":[[-17.22125,32.85042],[-17.22125,32.85042]]},"properties":{"source":"emodnet_dtm_2024","level":2}},{"type":"Feature","geometry":{"type":"LineString","coordinates":[[-17.21708,32.85458],[-17.21708,32.85458]]},"properties":{"source":"emodnet_dtm_2024","level":2}},{"type":"Feature","geometry":{"type":"LineString","coordinates":[[-17.20875,32.85958],[-17.20875,32.85958]]},"properties":{"source":"emodnet_dtm_2024","level":2}},{"type":"Feature","geometry":{"type":"LineString","coordinates":[[-17.20542,32.86375],[-17.20542,32.86375]]},"properties":{"source":"emodnet_dtm_2024","level":2}},{"type":"Feature","geometry":{"type":"LineString","coordinates":[[-17.20208,32.86708],[-17.20208,32.86708]]},"properties":{"source":"emodnet_dtm_2024","level":2}},{"type":"Feature","geometry":{"type":"LineString","coordinates":[[-17.17875,32.86708],[-17.17875,32.86708]]},"properties":{"source":"emodnet_dtm_2024","level":2}},{"type":"Feature","geometry":{"type":"LineString","coordinates":[[-17.17625,32.86708],[-17.17625,32.86708]]},"properties":{"source":"emodnet_dtm_2024","level":2}},{"type":"Feature","geometry":{"type":"LineString","coordinates":[[-17.20125,32.86792],[-17.20125,32.86792]]},"properties":{"source":"emodnet_dtm_2024","level":2}},{"type":"Feature","geometry":{"type":"LineString","coordinates":[[-17.18292,32.86792],[-17.18292,32.86792]]},"properties":{"source":"emodnet_dtm_2024","level":2}},{"type":"Feature","geometry":{"type":"LineString","coordinates":[[-17.17292,32.86792],[-17.17292,32.86792]]},"properties":{"source":"emodnet_dtm_2024","level":2}},{"type":"Feature","geometry":{"type":"LineString","coordinates":[[-16.39708,33.04208],[-16.39708,33.04208]]},"properties":{"source":"emodnet_dtm_2024","level":2}},{"type":"Feature","geometry":{"type":"LineString","coordinates":[[-16.39375,33.04292],[-16.39375,33.04292]]},"properties":{"source":"emodnet_dtm_2024","level":2}},{"type":"Feature","geometry":{"type":"LineString","coordinates":[[-16.38708,33.04871],[-16.38708,33.04926],[-16.38708,33.04871]]},"properties":{"source":"emodnet_dtm_2024","level":2}},{"type":"Feature","geometry":{"type":"LineString","coordinates":[[-16.38125,33.06292],[-16.38125,33.06292]]},"properties":{"source":"emodnet_dtm_2024","level":2}},{"type":"Feature","geometry":{"type":"LineString","coordinates":[[-16.38042,33.06375],[-16.38042,33.06375]]},"properties":{"source":"emodnet_dtm_2024","level":2}},{"type":"Feature","geometry":{"type":"LineString","coordinates":[[-16.37708,33.06792],[-16.37708,33.06792]]},"properties":{"source":"emodnet_dtm_2024","level":2}},{"type":"Feature","geometry":{"type":"LineString","coordinates":[[-16.37708,33.06958],[-16.37708,33.06958]]},"properties":{"source":"emodnet_dtm_2024","level":2}},{"type":"Feature","geometry":{"type":"LineString","coordinates":[[-16.37542,33.07625],[-16.37542,33.07625]]},"properties":{"source":"emodnet_dtm_2024","level":2}},{"type":"Feature","geometry":{"type":"LineString","coordinates":[[-16.37292,33.07792],[-16.37292,33.07792]]},"properties":{"source":"emodnet_dtm_2024","level":2}},{"type":"Feature","geometry":{"type":"LineString","coordinates":[[-16.36292,33.08375],[-16.36292,33.08375]]},"properties":{"source":"emodnet_dtm_2024","level":2}},{"type":"Feature","geometry":{"type":"LineString","coordinates":[[-16.35875,33.08792],[-16.35875,33.08792]]},"properties":{"source":"emodnet_dtm_2024","level":2}},{"type":"Feature","geometry":{"type":"LineString","coordinates":[[-16.35542,33.09208],[-16.35542,33.09208]]},"properties":{"source":"emodnet_dtm_2024","level":2}},{"type":"Feature","geometry":{"type":"LineString","coordinates":[[-16.35042,33.09292],[-16.35042,33.09292]]},"properties":{"source":"emodnet_dtm_2024","level":2}},{"type":"Feature","geometry":{"type":"LineString","coordinates":[[-16.34375,33.09708],[-16.34375,33.09708]]},"properties":{"source":"emodnet_dtm_2024","level":2}},{"type":"Feature","geometry":{"type":"LineString","coordinates":[[-16.30708,33.09708],[-16.30708,33.09708]]},"properties":{"source":"emodnet_dtm_2024","level":2}},{"type":"Feature","geometry":{"type":"LineString","coordinates":[[-16.30542,33.09708],[-16.30542,33.09708]]},"properties":{"source":"emodnet_dtm_2024","level":2}},{"type":"Feature","geometry":{"type":"LineString","coordinates":[[-16.30375,33.09708],[-16.30375,33.09708]]},"properties":{"source":"emodnet_dtm_2024","level":2}},{"type":"Feature","geometry":{"type":"LineString","coordinates":[[-16.30042,33.09708],[-16.30042,33.09708]]},"properties":{"source":"emodnet_dtm_2024","level":2}},{"type":"Feature","geometry":{"type":"LineString","coordinates":[[-16.33375,33.10125],[-16.33375,33.10125]]},"properties":{"source":"emodnet_dtm_2024","level":2}},{"type":"Feature","geometry":{"type":"LineString","coordinates":[[-16.32542,33.10542],[-16.32542,33.10542]]},"properties":{"source":"emodnet_dtm_2024","level":2}},{"type":"Feature","geometry":{"type":"LineString","coordinates":[[-16.49542,32.50542],[-16.49542,32.50542]]},"properties":{"source":"emodnet_dtm_2024","level":2}},{"type":"Feature","geometry":{"type":"LineString","coordinates":[[-16.49875,32.51542],[-16.49875,32.51542]]},"properties":{"source":"emodnet_dtm_2024","level":2}},{"type":"Feature","geometry":{"type":"LineString","coordinates":[[-16.49875,32.51708],[-16.49875,32.51708]]},"properties":{"source":"emodnet_dtm_2024","level":2}},{"type":"Feature","geometry":{"type":"LineString","coordinates":[[-16.50792,32.53042],[-16.50792,32.53042]]},"properties":{"source":"emodnet_dtm_2024","level":2}},{"type":"Feature","geometry":{"type":"LineString","coordinates":[[-16.51625,32.54292],[-16.51625,32.54292]]},"properties":{"source":"emodnet_dtm_2024","level":2}},{"type":"Feature","geometry":{"type":"LineString","coordinates":[[-16.52042,32.55042],[-16.52042,32.55042]]},"properties":{"source":"emodnet_dtm_2024","level":2}},{"type":"Feature","geometry":{"type":"LineString","coordinates":[[-16.52375,32.55542],[-16.52375,32.55542]]},"properties":{"source":"emodnet_dtm_2024","level":2}},{"type":"Feature","geometry":{"type":"LineString","coordinates":[[-16.52792,32.55875],[-16.52792,32.55875]]},"properties":{"source":"emodnet_dtm_2024","level":2}},{"type":"Feature","geometry":{"type":"LineString","coordinates":[[-16.52875,32.55958],[-16.52875,32.55958]]},"properties":{"source":"emodnet_dtm_2024","level":2}},{"type":"Feature","geometry":{"type":"LineString","coordinates":[[-16.53292,32.56792],[-16.53292,32.56792]]},"properties":{"source":"emodnet_dtm_2024","level":2}},{"type":"Feature","geometry":{"type":"LineString","coordinates":[[-16.53625,32.57125],[-16.53625,32.57125]]},"properties":{"source":"emodnet_dtm_2024","level":2}},{"type":"Feature","geometry":{"type":"LineString","coordinates":[[-16.77792,32.75875],[-16.77792,32.75875]]},"properties":{"source":"emodnet_dtm_2024","level":2}},{"type":"Feature","geometry":{"type":"LineString","coordinates":[[-16.78625,32.76375],[-16.78625,32.76375]]},"properties":{"source":"emodnet_dtm_2024","level":2}},{"type":"Feature","geometry":{"type":"LineString","coordinates":[[-16.83208,32.78042],[-16.83208,32.78042]]},"properties":{"source":"emodnet_dtm_2024","level":2}},{"type":"Feature","geometry":{"type":"LineString","coordinates":[[-17.09458,32.81625],[-17.09458,32.81625]]},"properties":{"source":"emodnet_dtm_2024","level":2}},{"type":"Feature","geometry":{"type":"LineString","coordinates":[[-17.09458,32.81792],[-17.09458,32.81792]]},"properties":{"source":"emodnet_dtm_2024","level":2}},{"type":"Feature","geometry":{"type":"LineString","coordinates":[[-16.88208,32.82542],[-16.88208,32.82542]]},"properties":{"source":"emodnet_dtm_2024","level":2}},{"type":"Feature","geometry":{"type":"LineString","coordinates":[[-16.88292,32.82625],[-16.88292,32.82625]]},"properties":{"source":"emodnet_dtm_2024","level":2}},{"type":"Feature","geometry":{"type":"LineString","coordinates":[[-17.12792,32.82958],[-17.12792,32.82958]]},"properties":{"source":"emodnet_dtm_2024","level":2}},{"type":"Feature","geometry":{"type":"LineString","coordinates":[[-16.97292,32.82958],[-16.97292,32.82958]]},"properties":{"source":"emodnet_dtm_2024","level":2}},{"type":"Feature","geometry":{"type":"LineString","coordinates":[[-17.12875,32.83042],[-17.12875,32.83042]]},"properties":{"source":"emodnet_dtm_2024","level":2}},{"type":"Feature","geometry":{"type":"LineString","coordinates":[[-16.89958,32.83375],[-16.89958,32.83375]]},"properties":{"source":"emodnet_dtm_2024","level":2}},{"type":"Feature","geometry":{"type":"LineString","coordinates":[[-17.14042,32.84208],[-17.14042,32.84208]]},"properties":{"source":"emodnet_dtm_2024","level":2}},{"type":"Feature","geometry":{"type":"LineString","coordinates":[[-17.14958,32.85375],[-17.14958,32.85375]]},"properties":{"source":"emodnet_dtm_2024","level":2}},{"type":"Feature","geometry":{"type":"LineString","coordinates":[[-16.31125,33.10125],[-16.31125,33.10125]]},"properties":{"source":"emodnet_dtm_2024","level":2}},{"type":"Feature","geometry":{"type":"LineString","coordinates":[[-16.48542,32.41458],[-16.48542,32.41458]]},"properties":{"source":"emodnet_dtm_2024","level":2}},{"type":"Feature","geometry":{"type":"LineString","coordinates":[[-16.53542,32.53625],[-16.53542,32.53625]]},"properties":{"source":"emodnet_dtm_2024","level":2}},{"type":"Feature","geometry":{"type":"LineString","coordinates":[[-16.81208,32.65208],[-16.81208,32.65208]]},"properties":{"source":"emodnet_dtm_2024","level":2}},{"type":"Feature","geometry":{"type":"LineString","coordinates":[[-16.79958,32.67292],[-16.79958,32.67292]]},"properties":{"source":"emodnet_dtm_2024","level":2}},{"type":"Feature","geometry":{"type":"LineString","coordinates":[[-16.78542,32.68542],[-16.78542,32.68542]]},"properties":{"source":"emodnet_dtm_2024","level":2}},{"type":"Feature","geometry":{"type":"LineString","coordinates":[[-16.78292,32.68542],[-16.78292,32.68542]]},"properties":{"source":"emodnet_dtm_2024","level":2}},{"type":"Feature","geometry":{"type":"LineString","coordinates":[[-16.83208,32.78125],[-16.83208,32.78125]]},"properties":{"source":"emodnet_dtm_2024","level":2}},{"type":"Feature","geometry":{"type":"LineString","coordinates":[[-16.38875,33.02792],[-16.38875,33.02792]]},"properties":{"source":"emodnet_dtm_2024","level":2}},{"type":"Feature","geometry":{"type":"LineString","coordinates":[[-16.47542,32.40375],[-16.47542,32.40375]]},"properties":{"source":"emodnet_dtm_2024","level":2}},{"type":"Feature","geometry":{"type":"LineString","coordinates":[[-16.48042,32.40792],[-16.48042,32.40792]]},"properties":{"source":"emodnet_dtm_2024","level":2}},{"type":"Feature","geometry":{"type":"LineString","coordinates":[[-16.52125,32.52792],[-16.52125,32.52792]]},"properties":{"source":"emodnet_dtm_2024","level":2}},{"type":"Feature","geometry":{"type":"LineString","coordinates":[[-16.52208,32.52875],[-16.52208,32.52875]]},"properties":{"source":"emodnet_dtm_2024","level":2}},{"type":"Feature","geometry":{"type":"LineString","coordinates":[[-16.52625,32.53208],[-16.52625,32.53208]]},"properties":{"source":"emodnet_dtm_2024","level":2}},{"type":"Feature","geometry":{"type":"LineString","coordinates":[[-16.52708,32.53292],[-16.52708,32.53292]]},"properties":{"source":"emodnet_dtm_2024","level":2}},{"type":"Feature","geometry":{"type":"LineString","coordinates":[[-16.53458,32.53542],[-16.53458,32.53542]]},"properties":{"source":"emodnet_dtm_2024","level":2}},{"type":"Feature","geometry":{"type":"LineString","coordinates":[[-16.53792,32.54542],[-16.53792,32.54542]]},"properties":{"source":"emodnet_dtm_2024","level":2}},{"type":"Feature","geometry":{"type":"LineString","coordinates":[[-16.53875,32.55792],[-16.53875,32.55792]]},"properties":{"source":"emodnet_dtm_2024","level":2}},{"type":"Feature","geometry":{"type":"LineString","coordinates":[[-17.23458,32.75792],[-17.23458,32.75792]]},"properties":{"source":"emodnet_dtm_2024","level":2}},{"type":"Feature","geometry":{"type":"LineString","coordinates":[[-17.23542,32.76125],[-17.23542,32.76125]]},"properties":{"source":"emodnet_dtm_2024","level":2}},{"type":"Feature","geometry":{"type":"LineString","coordinates":[[-17.24625,32.78125],[-17.24625,32.78125]]},"properties":{"source":"emodnet_dtm_2024","level":2}},{"type":"Feature","geometry":{"type":"LineString","coordinates":[[-17.24708,32.78292],[-17.24708,32.78292]]},"properties":{"source":"emodnet_dtm_2024","level":2}},{"type":"Feature","geometry":{"type":"LineString","coordinates":[[-17.25042,32.79458],[-17.25042,32.79458]]},"properties":{"source":"emodnet_dtm_2024","level":2}},{"type":"Feature","geometry":{"type":"LineString","coordinates":[[-17.25125,32.79542],[-17.25125,32.79542]]},"properties":{"source":"emodnet_dtm_2024","level":2}},{"type":"Feature","geometry":{"type":"LineString","coordinates":[[-17.25875,32.80375],[-17.25875,32.80375]]},"properties":{"source":"emodnet_dtm_2024","level":2}},{"type":"Feature","geometry":{"type":"LineString","coordinates":[[-17.26708,32.81125],[-17.26708,32.81125]]},"properties":{"source":"emodnet_dtm_2024","level":2}},{"type":"Feature","geometry":{"type":"LineString","coordinates":[[-16.53875,32.54792],[-16.53875,32.54792]]},"properties":{"source":"emodnet_dtm_2024","level":2}},{"type":"Feature","geometry":{"type":"LineString","coordinates":[[-16.53792,32.55458],[-16.53792,32.55458]]},"properties":{"source":"emodnet_dtm_2024","level":2}},{"type":"Feature","geometry":{"type":"LineString","coordinates":[[-17.26042,32.81708],[-17.26042,32.81708]]},"properties":{"source":"emodnet_dtm_2024","level":2}},{"type":"Feature","geometry":{"type":"LineString","coordinates":[[-16.39292,33.02875],[-16.39292,33.02875]]},"properties":{"source":"emodnet_dtm_2024","level":2}},{"type":"Feature","geometry":{"type":"LineString","coordinates":[[-17.25958,32.81792],[-17.25958,32.81792]]},"properties":{"source":"emodnet_dtm_2024","level":2}},{"type":"Feature","geometry":{"type":"LineString","coordinates":[[-16.97042,32.82958],[-16.97042,32.82958]]},"properties":{"source":"emodnet_dtm_2024","level":2}}]}